QIANFAN-19              
1 61552U 24185A   25216.95929508  .00000351  00000+0  17690-3 0  9996
2 61552  88.9802  92.8327 0007894  19.1860 340.9622 14.14117237 51328
QIANFAN-20              
1 61553U 24185B   25216.91629244  .00000278  00000+0  15348-3 0  9993
2 61553  88.9802  93.0303 0007933  50.3233 309.8649 14.08669002 51217
QIANFAN-21              
1 61554U 24185C   25216.96426279  .00000462  00000+0  20107-3 0  9996
2 61554  88.9716  92.1999 0013071  68.4575 291.8008 14.22364521 51529
QIANFAN-22              
1 61555U 24185D   25216.93701527  .00000084  00000+0  61620-4 0  9992
2 61555  88.9788  93.4867 0008419  43.0648 317.1181 13.86236668 50956
QIANFAN-23              
1 61556U 24185E   25216.83408817  .00000384  00000+0  18748-3 0  9993
2 61556  88.9795  92.7167 0009157  28.8182 331.3510 14.16088740 51364
QIANFAN-24              
1 61557U 24185F   25216.93598290  .00000363  00000+0  15300-3 0  9998
2 61557  88.9776  92.3227 0010309  15.4478 344.7026 14.23567040 51552
